{
    "links": {
        "self": "http://www.neowsapp.com/rest/v1/neo/3736242?api_key=iIulBulltgU6a56xZRHN4H3l9WmuAYTsLGpBGhQ2"
    },
    "id": "3736242",
    "neo_reference_id": "3736242",
    "name": "(2015 XS129)",
    "designation": "2015 XS129",
    "nasa_jpl_url": "http://ssd.jpl.nasa.gov/sbdb.cgi?sstr=3736242",
    "absolute_magnitude_h": 25.6,
    "estimated_diameter": {
        "kilometers": {
            "estimated_diameter_min": 0.0201629919,
            "estimated_diameter_max": 0.0450858206
        },
        "meters": {
            "estimated_diameter_min": 20.1629919443,
            "estimated_diameter_max": 45.0858206172
        },
        "miles": {
            "estimated_diameter_min": 0.0125286985,
            "estimated_diameter_max": 0.0280150214
        },
        "feet": {
            "estimated_diameter_min": 66.1515504905,
            "estimated_diameter_max": 147.9193637137
        }
    },
    "is_potentially_hazardous_asteroid": false,
    "close_approach_data": [
        {
            "close_approach_date": "1950-12-31",
            "close_approach_date_full": "1950-Dec-31 16:13",
            "epoch_date_close_approach": -599644020000,
            "relative_velocity": {
                "kilometers_per_second": "15.1182034602",
                "kilometers_per_hour": "54425.5324566995",
                "miles_per_hour": "33817.9093201086"
            },
            "miss_distance": {
                "astronomical": "0.3834902927",
                "lunar": "149.1777238603",
                "kilometers": "57369330.953596549",
                "miles": "35647649.2511044162"
            },
            "orbiting_body": "Earth"
        },
        {
            "close_approach_date": "2015-11-25",
            "close_approach_date_full": "2015-Nov-25 14:57",
            "epoch_date_close_approach": 1448463420000,
            "relative_velocity": {
                "kilometers_per_second": "5.0093498212",
                "kilometers_per_hour": "18033.6593562368",
                "miles_per_hour": "11205.4146149906"
            },
            "miss_distance": {
                "astronomical": "0.0577344821",
                "lunar": "22.4587135369",
                "kilometers": "8636955.547713127",
                "miles": "5366755.3175980726"
            },
            "orbiting_body": "Earth"
        }
    ],
    "orbital_data": {
        "orbit_id": "4",
        "orbit_determination_date": "2017-04-06 08:30:06",
        "first_observation_date": "2015-12-06",
        "last_observation_date": "2015-12-16",
        "data_arc_in_days": 10,
        "observations_used": 33,
        "orbit_uncertainty": "8",
        "minimum_orbit_intersection": ".0575121",
        "jupiter_tisserand_invariant": "4.091",
        "epoch_osculation": "2457363.5",
        "eccentricity": ".390071455710956",
        "semi_major_axis": "1.712523324223138",
        "inclination": "4.763561119718954",
        "ascending_node_longitude": "245.5466082717038",
        "orbital_period": "818.5649970448526",
        "perihelion_distance": "1.044516858204453",
        "perihelion_argument": "176.7035374706518",
        "aphelion_distance": "2.380529790241823",
        "perihelion_time": "2457351.846016934186",
        "mean_anomaly": "5.125352194192533",
        "mean_motion": ".4397940313837706",
        "equinox": "J2000",
        "orbit_class": {
            "orbit_class_type": "AMO",
            "orbit_class_description": "Near-Earth asteroid orbits similar to that of 1221 Amor",
            "orbit_class_range": "1.017 AU < q (perihelion) < 1.3 AU"
        }
    },
    "is_sentry_object": false
}